NORAD_CAT_ID,OBJECT_NAME,OBJECT_TYPE,EPOCH,MEAN_MOTION,ECCENTRICITY,INCLINATION,RA_OF_ASC_NODE,ARG_OF_PERICENTER,MEAN_ANOMALY,BSTAR,MEAN_MOTION_DOT,MEAN_MOTION_DDOT,TLE_LINE0,TLE_LINE1,TLE_LINE2,SEMIMAJOR_AXIS,PERIOD,APOGEE,PERIGEE,DECAYED
52089.0,STARLINK-3722,PAYLOAD,2022-10-12 05:44:48,15.08833929,0.0001773,53.2161,275.6628,53.2069,306.9085,-4.4017e-05,-9.88e-06,0.0,0 STARLINK-3722,1 52089U 22029B   22285.23945519 -.00000988  00000-0 -44017-4 0  9993,2 52089  53.2161 275.6628 0001773  53.2069 306.9085 15.08833929 32782,6917.899,95.438,540.99,538.5369999999998,0.0
52089.0,STARLINK-3722,PAYLOAD,2022-10-13 05:35:35,15.08839265,0.0001867,53.2172,271.2032,45.5741,314.5404,9.5154e-05,1.227e-05,0.0,0 STARLINK-3722,1 52089U 22029B   22286.23305062  .00001227  00000-0  95154-4 0  9990,2 52089  53.2172 271.2032 0001867  45.5741 314.5404 15.08839265 32936,6917.8830000000025,95.438,541.039,538.456,0.0
52089.0,STARLINK-3722,PAYLOAD,2022-10-13 10:21:45,15.0882805,0.0001818,53.2177,270.3094,50.6654,309.4499,7.4433e-05,8.96e-06,0.0,0 STARLINK-3722,1 52089U 22029B   22286.43177894  .00000896  00000-0  74433-4 0  9990,2 52089  53.2177 270.3094 0001818  50.6654 309.4499 15.08828050 32965,6917.917,95.438,541.04,538.524,0.0
52089.0,STARLINK-3722,PAYLOAD,2022-10-14 05:26:22,15.0884689,0.0001813,53.2167,266.7439,43.8576,316.256,0.00013643,1.884e-05,0.0,0 STARLINK-3722,1 52089U 22029B   22287.22664959  .00001884  00000-0  13643-3 0  9994,2 52089  53.2167 266.7439 0001813  43.8576 316.2560 15.08846890 33089,6917.859,95.437,540.979,538.47,0.0
52089.0,STARLINK-3722,PAYLOAD,2022-10-14 10:12:32,15.08844944,0.0001834,53.2164,265.8519,43.404,316.7096,0.00012483,1.699e-05,0.0,0 STARLINK-3722,1 52089U 22029B   22287.42537156  .00001699  00000-0  12483-3 0  9999,2 52089  53.2164 265.8519 0001834  43.4040 316.7096 15.08844944 33111,6917.865,95.437,540.999,538.462,0.0
52089.0,STARLINK-3722,PAYLOAD,2022-10-15 05:17:10,15.08836519,0.0001816,53.2163,262.2829,43.6979,316.4157,1.0154e-05,-1.27e-06,0.0,0 STARLINK-3722,1 52089U 22029B   22288.22025731 -.00000127  00000-0  10154-4 0  9999,2 52089  53.2163 262.2829 0001816  43.6979 316.4157 15.08836519 33235,6917.891,95.438,541.012,538.5,0.0
52089.0,STARLINK-3722,PAYLOAD,2022-10-16 09:54:06,15.08838934,0.0001815,53.2163,256.9298,44.2344,315.8793,-4.6985e-05,-1.036e-05,0.0,0 STARLINK-3722,1 52089U 22029B   22289.41257762 -.00001036  00000-0 -46985-4 0  9994,2 52089  53.2163 256.9298 0001815  44.2344 315.8793 15.08838934 33419,6917.884,95.438,541.004,538.493,0.0
52089.0,STARLINK-3722,PAYLOAD,2022-10-16 14:40:16,15.08833354,0.000187,53.2167,256.0379,44.3689,315.7452,-1.9993e-05,-6.06e-06,0.0,0 STARLINK-3722,1 52089U 22029B   22289.61130093 -.00000606  00000-0 -19993-4 0  9994,2 52089  53.2167 256.0379 0001870  44.3689 315.7452 15.08833354 33443,6917.901,95.438,541.059,538.472,0.0
52089.0,STARLINK-3722,PAYLOAD,2022-10-17 04:58:44,15.08830761,0.0001742,53.2171,253.3616,47.6297,312.4843,1.7956e-05,-2e-08,0.0,0 STARLINK-3722,1 52089U 22029B   22290.20746494 -.00000002  00000-0  17956-4 0  9995,2 52089  53.2171 253.3616 0001742  47.6297 312.4843 15.08830761 33538,6917.909000000002,95.438,540.979,538.569,0.0
52089.0,STARLINK-3722,PAYLOAD,2022-10-17 06:34:07,15.088332,0.0001781,53.2171,253.064,48.284,311.8304,3.6758e-05,2.97e-06,0.0,0 STARLINK-3722,1 52089U 22029B   22290.27370327  .00000297  00000-0  36758-4 0  9996,2 52089  53.2171 253.0640 0001781  48.2840 311.8304 15.08833200 33543,6917.901,95.438,540.998,538.534,0.0
52089.0,STARLINK-3722,PAYLOAD,2022-10-18 03:14:08,15.08840584,0.0001827,53.2168,249.1982,49.0064,311.1086,6.1843e-05,6.96e-06,0.0,0 STARLINK-3722,1 52089U 22029B   22291.13481981  .00000696  00000-0  61843-4 0  9997,2 52089  53.2168 249.1982 0001827  49.0064 311.1086 15.08840584 33679,6917.879,95.438,541.008,538.48,0.0
52089.0,STARLINK-3722,PAYLOAD,2022-10-18 06:24:54,15.08840892,0.0001854,53.217,248.6037,47.9694,312.1456,7.4943e-05,9.05e-06,0.0,0 STARLINK-3722,1 52089U 22029B   22291.26729949  .00000905  00000-0  74943-4 0  9998,2 52089  53.2170 248.6037 0001854  47.9694 312.1456 15.08840892 33699,6917.878000000002,95.437,541.025,538.46,0.0
52089.0,STARLINK-3722,PAYLOAD,2022-10-18 14:21:51,15.08832401,0.0001869,53.2172,247.1171,50.7759,309.3399,2.351300000000001e-05,8.6e-07,0.0,0 STARLINK-3722,1 52089U 22029B   22291.59850722  .00000086  00000-0  23513-4 0  9995,2 52089  53.2172 247.1171 0001869  50.7759 309.3399 15.08832401 33741,6917.904,95.438,541.062,538.476,0.0
52089.0,STARLINK-3722,PAYLOAD,2022-10-19 06:15:43,15.08828692,0.0001826,53.2171,244.1429,55.3506,304.7659,2.0231e-05,3.4e-07,0.0,0 STARLINK-3722,1 52089U 22029B   22292.26091458  .00000034  00000-0  20231-4 0  9990,2 52089  53.2171 244.1429 0001826  55.3506 304.7659 15.08828692 33843,6917.915,95.438,541.043,538.5169999999998,0.0
52089.0,STARLINK-3722,PAYLOAD,2022-10-19 14:12:38,15.08838703,0.0001807,53.2172,242.6564,55.3046,304.8116,3.8312e-05,3.22e-06,0.0,0 STARLINK-3722,1 52089U 22029B   22292.59210881  .00000322  00000-0  38312-4 0  9998,2 52089  53.2172 242.6564 0001807  55.3046 304.8116 15.08838703 33893,6917.884,95.438,540.999,538.499,0.0
52089.0,STARLINK-3722,PAYLOAD,2022-10-20 02:55:42,15.08849645,0.0001805,53.2171,240.2772,55.4575,304.6587,0.00010063,1.314e-05,0.0,0 STARLINK-3722,1 52089U 22029B   22293.12201900  .00001314  00000-0  10063-3 0  9994,2 52089  53.2171 240.2772 0001805  55.4575 304.6587 15.08849645 33979,6917.851,95.437,540.965,538.467,0.0
52089.0,STARLINK-3722,PAYLOAD,2022-10-20 06:06:28,15.08849864,0.0001817,53.2173,239.6827,55.286,304.8303,0.00010105,1.321e-05,0.0,0 STARLINK-3722,1 52089U 22029B   22293.25449830  .00001321  00000-0  10105-3 0  9999,2 52089  53.2173 239.6827 0001817  55.2860 304.8303 15.08849864 33995,6917.85,95.437,540.972,538.4580000000002,0.0
52089.0,STARLINK-3722,PAYLOAD,2022-10-20 14:03:24,15.08842406,0.0001799,53.2171,238.1953,56.5511,303.5653,6.665600000000001e-05,7.73e-06,0.0,0 STARLINK-3722,1 52089U 22029B   22293.58570296  .00000773  00000-0  66656-4 0  9999,2 52089  53.2171 238.1953 0001799  56.5511 303.5653 15.08842406 34049,6917.873000000001,95.437,540.9830000000002,538.494,0.0
52089.0,STARLINK-3722,PAYLOAD,2022-10-21 05:57:16,15.08839139,0.000172,53.2171,235.2217,55.473,304.6425,0.00011042,1.47e-05,0.0,0 STARLINK-3722,1 52089U 22029B   22294.24810491  .00001470  00000-0  11042-3 0  9990,2 52089  53.2171 235.2217 0001720  55.4730 304.6425 15.08839139 34144,6917.8830000000025,95.438,540.938,538.558,0.0
52089.0,STARLINK-3722,PAYLOAD,2022-10-22 02:37:16,15.08850287,0.0001743,53.2173,231.3564,54.221,305.8944,-1.6751e-05,-5.55e-06,0.0,0 STARLINK-3722,1 52089U 22029B   22295.10921865 -.00000555  00000-0 -16751-4 0  9992,2 52089  53.2173 231.3564 0001743  54.2210 305.8944 15.08850287 34273,6917.849,95.437,540.92,538.508,0.0
52089.0,STARLINK-3722,PAYLOAD,2022-10-22 20:06:32,15.08824823,0.0001763,53.2174,228.0856,54.4786,305.637,-6.2024e-05,-1.275e-05,0.0,0 STARLINK-3722,1 52089U 22029B   22295.83787696 -.00001275  00000-0 -62024-4 0  9998,2 52089  53.2174 228.0856 0001763  54.4786 305.6370 15.08824823 34383,6917.927,95.439,541.011,538.572,0.0
52089.0,STARLINK-3722,PAYLOAD,2022-10-23 05:38:50,15.0883987,0.0001735,53.2174,226.3013,50.8521,309.2625,3.574e-05,2.81e-06,0.0,0 STARLINK-3722,1 52089U 22029B   22296.23530641  .00000281  00000-0  35740-4 0  9998,2 52089  53.2174 226.3013 0001735  50.8521 309.2625 15.08839870 34443,6917.880999999999,95.438,540.946,538.5459999999998,0.0
52089.0,STARLINK-3722,PAYLOAD,2022-10-23 12:00:22,15.08847643,0.0001766999999999,53.2176,225.1117,50.4264,309.6884,7.7055e-05,9.39e-06,0.0,0 STARLINK-3722,1 52089U 22029B   22296.50025935  .00000939  00000-0  77055-4 0  9998,2 52089  53.2176 225.1117 0001767  50.4264 309.6884 15.08847643 34484,6917.857,95.437,540.944,538.5,0.0
52089.0,STARLINK-3722,PAYLOAD,2022-10-23 18:21:54,15.08851474,0.0001744,53.2176,223.9223,51.9164,308.1985,7.3684e-05,8.85e-06,0.0,0 STARLINK-3722,1 52089U 22029B   22296.76521601  .00000885  00000-0  73684-4 0  9991,2 52089  53.2176 223.9223 0001744  51.9164 308.1985 15.08851474 34526,6917.845,95.437,540.9169999999998,538.504,0.0
52089.0,STARLINK-3722,PAYLOAD,2022-10-24 05:29:37,15.0884282,0.0001602,53.2169,221.8412,46.6414,313.4712,6.9608e-06,-1.77e-06,0.0,0 STARLINK-3722,1 52089U 22029B   22297.22890144 -.00000177  00000-0  69608-5 0  9991,2 52089  53.2169 221.8412 0001602  46.6414 313.4712 15.08842820 34596,6917.871999999999,95.437,540.845,538.629,0.0
52089.0,STARLINK-3722,PAYLOAD,2022-10-24 18:12:43,15.088189600000002,0.0001735,53.2167,219.4622,49.5989,310.5155,2.8916e-05,1.72e-06,0.0,0 STARLINK-3722,1 52089U 22029B   22297.75883978  .00000172  00000-0  28916-4 0  9996,2 52089  53.2167 219.4622 0001735  49.5989 310.5155 15.08818960 34672,6917.945,95.439,541.01,538.609,0.0
52089.0,STARLINK-3722,PAYLOAD,2022-10-25 03:45:02,15.08824435,0.0001781999999999,53.2169,217.678,49.4359,310.6789,5.8443e-05,6.42e-06,0.0,0 STARLINK-3722,1 52089U 22029B   22298.15627907  .00000642  00000-0  58443-4 0  9999,2 52089  53.2169 217.6780 0001782  49.4359 310.6789 15.08824435 34736,6917.928000000001,95.439,541.026,538.56,0.0
52089.0,STARLINK-3722,PAYLOAD,2022-10-25 11:41:57,15.08837738,0.0001708,53.2168,216.1914,45.6307,314.4825,-1.1115999999999997e-05,-4.65e-06,0.0,0 STARLINK-3722,1 52089U 22029B   22298.48747417 -.00000465  00000-0 -11116-4 0  9995,2 52089  53.2168 216.1914 0001708  45.6307 314.4825 15.08837738 34785,6917.887,95.438,540.934,538.571,0.0
52089.0,STARLINK-3722,PAYLOAD,2022-10-26 03:35:49,15.08831267,0.0001766,53.2175,213.2151,53.9116,306.204,-8.4777e-05,-1.637e-05,0.0,0 STARLINK-3722,1 52089U 22029B   22299.14988424 -.00001637  00000-0 -84777-4 0  9999,2 52089  53.2175 213.2151 0001766  53.9116 306.2040 15.08831267 34888,6917.906999999997,95.438,540.994,538.55,0.0
